<?xml version="1.0" encoding="UTF-8"?>
<ndm xmlns:xsi="http://www.w3.org/2001/XMLSchema-instance" xsi:noNamespaceSchemaLocation="https://sanaregistry.org/r/ndmxml_unqualified/ndmxml-2.0.0-master-2.0.xsd">
<omm id="CCSDS_OMM_VERS" version="2.0">
<header><CREATION_DATE/><ORIGINATOR/></header><body><segment><metadata><OBJECT_NAME>IRIDIUM 57</OBJECT_NAME><OBJECT_ID>1998-019B</OBJECT_ID><CENTER_NAME>EARTH</CENTER_NAME><REF_FRAME>TEME</REF_FRAME><TIME_SYSTEM>UTC</TIME_SYSTEM><MEAN_ELEMENT_THEORY>SGP4</MEAN_ELEMENT_THEORY></metadata><data><meanElements><EPOCH>2024-08-17T05:13:58.346688</EPOCH><MEAN_MOTION>14.35337587</MEAN_MOTION><ECCENTRICITY>.0002267</ECCENTRICITY><INCLINATION>86.3920</INCLINATION><RA_OF_ASC_NODE>272.5534</RA_OF_ASC_NODE><ARG_OF_PERICENTER>90.9056</ARG_OF_PERICENTER><MEAN_ANOMALY>269.2400</MEAN_ANOMALY></meanElements><tleParameters><EPHEMERIS_TYPE>0</EPHEMERIS_TYPE><CLASSIFICATION_TYPE>U</CLASSIFICATION_TYPE><NORAD_CAT_ID>25273</NORAD_CAT_ID><ELEMENT_SET_NO>999</ELEMENT_SET_NO><REV_AT_EPOCH>38117</REV_AT_EPOCH><BSTAR>.38636E-3</BSTAR><MEAN_MOTION_DOT>.1126E-4</MEAN_MOTION_DOT><MEAN_MOTION_DDOT>0</MEAN_MOTION_DDOT></tleParameters></data></segment></body></omm>
<omm id="CCSDS_OMM_VERS" version="2.0">
<header><CREATION_DATE/><ORIGINATOR/></header><body><segment><metadata><OBJECT_NAME>IRIDIUM 63</OBJECT_NAME><OBJECT_ID>1998-021B</OBJECT_ID><CENTER_NAME>EARTH</CENTER_NAME><REF_FRAME>TEME</REF_FRAME><TIME_SYSTEM>UTC</TIME_SYSTEM><MEAN_ELEMENT_THEORY>SGP4</MEAN_ELEMENT_THEORY></metadata><data><meanElements><EPOCH>2024-08-17T00:13:17.352768</EPOCH><MEAN_MOTION>14.35900545</MEAN_MOTION><ECCENTRICITY>.0002372</ECCENTRICITY><INCLINATION>86.4000</INCLINATION><RA_OF_ASC_NODE>209.5505</RA_OF_ASC_NODE><ARG_OF_PERICENTER>93.4379</ARG_OF_PERICENTER><MEAN_ANOMALY>266.7089</MEAN_ANOMALY></meanElements><tleParameters><EPHEMERIS_TYPE>0</EPHEMERIS_TYPE><CLASSIFICATION_TYPE>U</CLASSIFICATION_TYPE><NORAD_CAT_ID>25286</NORAD_CAT_ID><ELEMENT_SET_NO>999</ELEMENT_SET_NO><REV_AT_EPOCH>38018</REV_AT_EPOCH><BSTAR>.60537E-3</BSTAR><MEAN_MOTION_DOT>.1773E-4</MEAN_MOTION_DOT><MEAN_MOTION_DDOT>0</MEAN_MOTION_DDOT></tleParameters></data></segment></body></omm>
<omm id="CCSDS_OMM_VERS" version="2.0">
<header><CREATION_DATE/><ORIGINATOR/></header><body><segment><metadata><OBJECT_NAME>IRIDIUM 69</OBJECT_NAME><OBJECT_ID>1998-026A</OBJECT_ID><CENTER_NAME>EARTH</CENTER_NAME><REF_FRAME>TEME</REF_FRAME><TIME_SYSTEM>UTC</TIME_SYSTEM><MEAN_ELEMENT_THEORY>SGP4</MEAN_ELEMENT_THEORY></metadata><data><meanElements><EPOCH>2024-08-17T00:53:53.210688</EPOCH><MEAN_MOTION>14.40155684</MEAN_MOTION><ECCENTRICITY>.0001465</ECCENTRICITY><INCLINATION>86.3967</INCLINATION><RA_OF_ASC_NODE>223.7348</RA_OF_ASC_NODE><ARG_OF_PERICENTER>19.9368</ARG_OF_PERICENTER><MEAN_ANOMALY>340.1888</MEAN_ANOMALY></meanElements><tleParameters><EPHEMERIS_TYPE>0</EPHEMERIS_TYPE><CLASSIFICATION_TYPE>U</CLASSIFICATION_TYPE><NORAD_CAT_ID>25319</NORAD_CAT_ID><ELEMENT_SET_NO>999</ELEMENT_SET_NO><REV_AT_EPOCH>37927</REV_AT_EPOCH><BSTAR>.54211E-3</BSTAR><MEAN_MOTION_DOT>.1731E-4</MEAN_MOTION_DOT><MEAN_MOTION_DDOT>0</MEAN_MOTION_DDOT></tleParameters></data></segment></body></omm>
<omm id="CCSDS_OMM_VERS" version="2.0">
<header><CREATION_DATE/><ORIGINATOR/></header><body><segment><metadata><OBJECT_NAME>IRIDIUM 71</OBJECT_NAME><OBJECT_ID>1998-026B</OBJECT_ID><CENTER_NAME>EARTH</CENTER_NAME><REF_FRAME>TEME</REF_FRAME><TIME_SYSTEM>UTC</TIME_SYSTEM><MEAN_ELEMENT_THEORY>SGP4</MEAN_ELEMENT_THEORY></metadata><data><meanElements><EPOCH>2024-08-17T12:15:27.929952</EPOCH><MEAN_MOTION>14.40463863</MEAN_MOTION><ECCENTRICITY>.0003423</ECCENTRICITY><INCLINATION>86.3975</INCLINATION><RA_OF_ASC_NODE>218.2854</RA_OF_ASC_NODE><ARG_OF_PERICENTER>51.3898</ARG_OF_PERICENTER><MEAN_ANOMALY>308.7608</MEAN_ANOMALY></meanElements><tleParameters><EPHEMERIS_TYPE>0</EPHEMERIS_TYPE><CLASSIFICATION_TYPE>U</CLASSIFICATION_TYPE><NORAD_CAT_ID>25320</NORAD_CAT_ID><ELEMENT_SET_NO>999</ELEMENT_SET_NO><REV_AT_EPOCH>37986</REV_AT_EPOCH><BSTAR>.53755E-3</BSTAR><MEAN_MOTION_DOT>.1727E-4</MEAN_MOTION_DOT><MEAN_MOTION_DDOT>0</MEAN_MOTION_DDOT></tleParameters></data></segment></body></omm>
<omm id="CCSDS_OMM_VERS" version="2.0">
<header><CREATION_DATE/><ORIGINATOR/></header><body><segment><metadata><OBJECT_NAME>IRIDIUM 73</OBJECT_NAME><OBJECT_ID>1998-032C</OBJECT_ID><CENTER_NAME>EARTH</CENTER_NAME><REF_FRAME>TEME</REF_FRAME><TIME_SYSTEM>UTC</TIME_SYSTEM><MEAN_ELEMENT_THEORY>SGP4</MEAN_ELEMENT_THEORY></metadata><data><meanElements><EPOCH>2024-08-17T08:21:00.427104</EPOCH><MEAN_MOTION>14.50746489</MEAN_MOTION><ECCENTRICITY>.0002043</ECCENTRICITY><INCLINATION>86.4479</INCLINATION><RA_OF_ASC_NODE>175.7261</RA_OF_ASC_NODE><ARG_OF_PERICENTER>78.3776</ARG_OF_PERICENTER><MEAN_ANOMALY>281.7659</MEAN_ANOMALY></meanElements><tleParameters><EPHEMERIS_TYPE>0</EPHEMERIS_TYPE><CLASSIFICATION_TYPE>U</CLASSIFICATION_TYPE><NORAD_CAT_ID>25344</NORAD_CAT_ID><ELEMENT_SET_NO>999</ELEMENT_SET_NO><REV_AT_EPOCH>38649</REV_AT_EPOCH><BSTAR>.63039E-3</BSTAR><MEAN_MOTION_DOT>.2498E-4</MEAN_MOTION_DOT><MEAN_MOTION_DDOT>0</MEAN_MOTION_DDOT></tleParameters></data></segment></body></omm>
<omm id="CCSDS_OMM_VERS" version="2.0">
<header><CREATION_DATE/><ORIGINATOR/></header><body><segment><metadata><OBJECT_NAME>IRIDIUM 82</OBJECT_NAME><OBJECT_ID>1998-051A</OBJECT_ID><CENTER_NAME>EARTH</CENTER_NAME><REF_FRAME>TEME</REF_FRAME><TIME_SYSTEM>UTC</TIME_SYSTEM><MEAN_ELEMENT_THEORY>SGP4</MEAN_ELEMENT_THEORY></metadata><data><meanElements><EPOCH>2024-08-17T12:20:03.202080</EPOCH><MEAN_MOTION>15.12923994</MEAN_MOTION><ECCENTRICITY>.0120585</ECCENTRICITY><INCLINATION>86.3703</INCLINATION><RA_OF_ASC_NODE>256.6158</RA_OF_ASC_NODE><ARG_OF_PERICENTER>356.0554</ARG_OF_PERICENTER><MEAN_ANOMALY>3.9720</MEAN_ANOMALY></meanElements><tleParameters><EPHEMERIS_TYPE>0</EPHEMERIS_TYPE><CLASSIFICATION_TYPE>U</CLASSIFICATION_TYPE><NORAD_CAT_ID>25467</NORAD_CAT_ID><ELEMENT_SET_NO>999</ELEMENT_SET_NO><REV_AT_EPOCH>37775</REV_AT_EPOCH><BSTAR>.13669E-2</BSTAR><MEAN_MOTION_DOT>.28904E-3</MEAN_MOTION_DOT><MEAN_MOTION_DDOT>0</MEAN_MOTION_DDOT></tleParameters></data></segment></body></omm>
</ndm>
