IRIDIUM 57              
1 25273U 98019B   24230.21803642  .00001126  00000+0  38636-3 0  9991
2 25273  86.3920 272.5534 0002267  90.9056 269.2400 14.35337587381172
IRIDIUM 63              
1 25286U 98021B   24230.00922862  .00001773  00000+0  60537-3 0  9994
2 25286  86.4000 209.5505 0002372  93.4379 266.7089 14.35900545380182
IRIDIUM 69              
1 25319U 98026A   24230.03742142  .00001731  00000+0  54211-3 0  9996
2 25319  86.3967 223.7348 0001465  19.9368 340.1888 14.40155684379270
IRIDIUM 71              
1 25320U 98026B   24230.51073993  .00001727  00000+0  53755-3 0  9999
2 25320  86.3975 218.2854 0003423  51.3898 308.7608 14.40463863379862
IRIDIUM 73              
1 25344U 98032C   24230.34792161  .00002498  00000+0  63039-3 0  9990
2 25344  86.4479 175.7261 0002043  78.3776 281.7659 14.50746489386490
IRIDIUM 82              
1 25467U 98051A   24230.51392595  .00028904  00000+0  13669-2 0  9996
2 25467  86.3703 256.6158 0120585 356.0554   3.9720 15.12923994377750
